{
  "type": "FeatureCollection",
  "features": [
    {
      "type": "Feature",
      "properties": {
        "norad_id": 33603,
        "name": "FENGYUN 1C DEB",
        "group": "fengyun-1c-debris",
        "lat": -73.67009763113465,
        "lon": 76.93402365809432,
        "alt_km": 779.3501820905394,
        "timestamp": "2025-12-18T14:52:08.312306+00:00",
        "meta_object_name": "FENGYUN 1C DEB",
        "meta_object_id": "1999-025DCL",
        "meta_epoch": "2025-12-17T02:01:19.238016",
        "meta_mean_motion": 14.79943071,
        "meta_eccentricity": 0.02204054,
        "meta_inclination": 98.8049,
        "meta_ra_of_asc_node": 287.1909,
        "meta_arg_of_pericenter": 58.8724,
        "meta_mean_anomaly": 303.3901,
        "meta_ephemeris_type": 0,
        "meta_classification_type": "U",
        "meta_norad_cat_id": 33603,
        "meta_element_set_no": 999,
        "meta_rev_at_epoch": 98924,
        "meta_bstar": 0.00019375833,
        "meta_mean_motion_dot": 2.138e-05,
        "meta_mean_motion_ddot": 0,
        "tle_line1": "1 33603U 99025DCL 25351.08425044  .00002138  00000+0  19376-3 0  9995",
        "tle_line2": "2 33603  98.8049 287.1909 0220405  58.8724 303.3901 14.79943071989244"
      },
      "geometry": {
        "type": "Point",
        "coordinates": [
          76.93402365809432,
          -73.67009763113465
        ]
      }
    },
    {
      "type": "Feature",
      "properties": {
        "norad_id": 33605,
        "name": "FENGYUN 1C DEB",
        "group": "fengyun-1c-debris",
        "lat": 71.93179521377687,
        "lon": -36.56125053548936,
        "alt_km": 820.0944496144621,
        "timestamp": "2025-12-18T14:52:08.312316+00:00",
        "meta_object_name": "FENGYUN 1C DEB",
        "meta_object_id": "1999-025DCN",
        "meta_epoch": "2025-12-10T07:01:31.719072",
        "meta_mean_motion": 14.0776111,
        "meta_eccentricity": 0.0057186,
        "meta_inclination": 98.6977,
        "meta_ra_of_asc_node": 343.4026,
        "meta_arg_of_pericenter": 81.9564,
        "meta_mean_anomaly": 295.3635,
        "meta_ephemeris_type": 0,
        "meta_classification_type": "U",
        "meta_norad_cat_id": 33605,
        "meta_element_set_no": 999,
        "meta_rev_at_epoch": 59784,
        "meta_bstar": 0.00085517,
        "meta_mean_motion_dot": 1.428e-05,
        "meta_mean_motion_ddot": 0,
        "tle_line1": "1 33605U 99025DCN 25344.29272823  .00001428  00000+0  85517-3 0  9998",
        "tle_line2": "2 33605  98.6977 343.4026 0057186  81.9564 295.3635 14.07761110597841"
      },
      "geometry": {
        "type": "Point",
        "coordinates": [
          -36.56125053548936,
          71.93179521377687
        ]
      }
    },
    {
      "type": "Feature",
      "properties": {
        "norad_id": 33612,
        "name": "FENGYUN 1C DEB",
        "group": "fengyun-1c-debris",
        "lat": -40.23947386213963,
        "lon": -31.12417714082806,
        "alt_km": 940.6004468975725,
        "timestamp": "2025-12-18T14:52:08.312326+00:00",
        "meta_object_name": "FENGYUN 1C DEB",
        "meta_object_id": "1999-025DCV",
        "meta_epoch": "2025-12-13T20:28:43.869792",
        "meta_mean_motion": 14.04084486,
        "meta_eccentricity": 0.01112826,
        "meta_inclination": 98.5972,
        "meta_ra_of_asc_node": 317.0094,
        "meta_arg_of_pericenter": 105.6891,
        "meta_mean_anomaly": 255.6586,
        "meta_ephemeris_type": 0,
        "meta_classification_type": "U",
        "meta_norad_cat_id": 33612,
        "meta_element_set_no": 999,
        "meta_rev_at_epoch": 56689,
        "meta_bstar": 0.0022025481,
        "meta_mean_motion_dot": 3.646e-05,
        "meta_mean_motion_ddot": 0,
        "tle_line1": "1 33612U 99025DCV 25347.85328553  .00003646  00000+0  22025-2 0  9991",
        "tle_line2": "2 33612  98.5972 317.0094 0111282 105.6891 255.6586 14.04084486566896"
      },
      "geometry": {
        "type": "Point",
        "coordinates": [
          -31.12417714082806,
          -40.23947386213963
        ]
      }
    },
    {
      "type": "Feature",
      "properties": {
        "norad_id": 33613,
        "name": "FENGYUN 1C DEB",
        "group": "fengyun-1c-debris",
        "lat": -1.0853715039991607,
        "lon": 64.52200291211938,
        "alt_km": 777.3354986733457,
        "timestamp": "2025-12-18T14:52:08.312337+00:00",
        "meta_object_name": "FENGYUN 1C DEB",
        "meta_object_id": "1999-025DCW",
        "meta_epoch": "2025-12-16T22:39:46.027872",
        "meta_mean_motion": 14.33243029,
        "meta_eccentricity": 0.00302029,
        "meta_inclination": 98.6973,
        "meta_ra_of_asc_node": 62.6736,
        "meta_arg_of_pericenter": 76.3387,
        "meta_mean_anomaly": 284.1157,
        "meta_ephemeris_type": 0,
        "meta_classification_type": "U",
        "meta_norad_cat_id": 33613,
        "meta_element_set_no": 999,
        "meta_rev_at_epoch": 64570,
        "meta_bstar": 0.001526734,
        "meta_mean_motion_dot": 4.177e-05,
        "meta_mean_motion_ddot": 0,
        "tle_line1": "1 33613U 99025DCW 25350.94428273  .00004177  00000+0  15267-2 0  9996",
        "tle_line2": "2 33613  98.6973  62.6736 0030202  76.3387 284.1157 14.33243029645702"
      },
      "geometry": {
        "type": "Point",
        "coordinates": [
          64.52200291211938,
          -1.0853715039991607
        ]
      }
    },
    {
      "type": "Feature",
      "properties": {
        "norad_id": 33618,
        "name": "FENGYUN 1C DEB",
        "group": "fengyun-1c-debris",
        "lat": 40.400093639032555,
        "lon": -92.51253384096934,
        "alt_km": 571.0868555138795,
        "timestamp": "2025-12-18T14:52:08.312347+00:00",
        "meta_object_name": "FENGYUN 1C DEB",
        "meta_object_id": "1999-025DDB",
        "meta_epoch": "2025-12-18T01:06:23.096160",
        "meta_mean_motion": 14.62181337,
        "meta_eccentricity": 0.01650544,
        "meta_inclination": 98.531,
        "meta_ra_of_asc_node": 79.5558,
        "meta_arg_of_pericenter": 124.0513,
        "meta_mean_anomaly": 237.6483,
        "meta_ephemeris_type": 0,
        "meta_classification_type": "U",
        "meta_norad_cat_id": 33618,
        "meta_element_set_no": 999,
        "meta_rev_at_epoch": 96861,
        "meta_bstar": 0.00062261666,
        "meta_mean_motion_dot": 3.754e-05,
        "meta_mean_motion_ddot": 0,
        "tle_line1": "1 33618U 99025DDB 25352.04610065  .00003754  00000+0  62262-3 0  9994",
        "tle_line2": "2 33618  98.5310  79.5558 0165054 124.0513 237.6483 14.62181337968614"
      },
      "geometry": {
        "type": "Point",
        "coordinates": [
          -92.51253384096934,
          40.400093639032555
        ]
      }
    },
    {
      "type": "Feature",
      "properties": {
        "norad_id": 33619,
        "name": "FENGYUN 1C DEB",
        "group": "fengyun-1c-debris",
        "lat": 25.87373733197395,
        "lon": -113.65744619167198,
        "alt_km": 853.2489770954808,
        "timestamp": "2025-12-18T14:52:08.312357+00:00",
        "meta_object_name": "FENGYUN 1C DEB",
        "meta_object_id": "1999-025DDC",
        "meta_epoch": "2025-12-17T11:02:44.017152",
        "meta_mean_motion": 14.17531314,
        "meta_eccentricity": 0.00505218,
        "meta_inclination": 98.8624,
        "meta_ra_of_asc_node": 60.8467,
        "meta_arg_of_pericenter": 32.5457,
        "meta_mean_anomaly": 327.8816,
        "meta_ephemeris_type": 0,
        "meta_classification_type": "U",
        "meta_norad_cat_id": 33619,
        "meta_element_set_no": 999,
        "meta_rev_at_epoch": 63691,
        "meta_bstar": 0.0010023854,
        "meta_mean_motion_dot": 2.016e-05,
        "meta_mean_motion_ddot": 0,
        "tle_line1": "1 33619U 99025DDC 25351.46023168  .00002016  00000+0  10024-2 0  9990",
        "tle_line2": "2 33619  98.8624  60.8467 0050521  32.5457 327.8816 14.17531314636911"
      },
      "geometry": {
        "type": "Point",
        "coordinates": [
          -113.65744619167198,
          25.87373733197395
        ]
      }
    },
    {
      "type": "Feature",
      "properties": {
        "norad_id": 33621,
        "name": "FENGYUN 1C DEB",
        "group": "fengyun-1c-debris",
        "lat": 75.23663859300235,
        "lon": 55.79922354707878,
        "alt_km": 1024.0081833952754,
        "timestamp": "2025-12-18T14:52:08.312367+00:00",
        "meta_object_name": "FENGYUN 1C DEB",
        "meta_object_id": "1999-025DDE",
        "meta_epoch": "2025-12-10T20:17:14.702784",
        "meta_mean_motion": 14.19482835,
        "meta_eccentricity": 0.02846988,
        "meta_inclination": 98.1391,
        "meta_ra_of_asc_node": 195.7496,
        "meta_arg_of_pericenter": 300.0128,
        "meta_mean_anomaly": 57.3079,
        "meta_ephemeris_type": 0,
        "meta_classification_type": "U",
        "meta_norad_cat_id": 33621,
        "meta_element_set_no": 999,
        "meta_rev_at_epoch": 64217,
        "meta_bstar": 0.00099524636,
        "meta_mean_motion_dot": 3.099e-05,
        "meta_mean_motion_ddot": 0,
        "tle_line1": "1 33621U 99025DDE 25344.84530906  .00003099  00000+0  99525-3 0  9996",
        "tle_line2": "2 33621  98.1391 195.7496 0284698 300.0128  57.3079 14.19482835642176"
      },
      "geometry": {
        "type": "Point",
        "coordinates": [
          55.79922354707878,
          75.23663859300235
        ]
      }
    }
  ]
}